ONEWEB-0363             
1 49289U 21090L   24211.52024312  .00000077  00000+0  15818-3 0  9992
2 49289  87.9182  51.2423 0002176  88.4460 271.6922 13.20770214140362
ONEWEB-0364             
1 49290U 21090M   24211.55812219  .00000042  00000+0  70720-4 0  9994
2 49290  87.9183  51.2603 0001918  83.9670 276.1682 13.20772616141497
ONEWEB-0365             
1 49291U 21090N   24210.69440242 -.00000077  00000+0 -22431-3 0  9997
2 49291  87.9113  81.9568 0001665  78.6317 281.5003 13.19725051135612
ONEWEB-0366             
1 49292U 21090P   24210.64604048 -.00000154  00000+0 -45115-3 0  9999
2 49292  87.8929  66.6857 0001905  78.1419 281.9924 13.14503528137103
ONEWEB-0367             
1 49293U 21090Q   24210.60957147  .00000048  00000+0  86549-4 0  9994
2 49293  87.9183  51.4186 0001879  78.6443 281.4901 13.20773333138938
ONEWEB-0368             
1 49294U 21090R   24211.03729692  .00000102  00000+0  21898-3 0  9991
2 49294  87.9183  51.3637 0002433  66.8064 293.3325 13.20772876141447
ONEWEB-0369             
1 49295U 21090S   24211.37201536  .00000063  00000+0  12525-3 0  9994
2 49295  87.9124  81.8272 0001776  76.3102 283.8228 13.19726761136983
ONEWEB-0370             
1 49296U 21090T   24210.92208341 -.00000024  00000+0 -91732-4 0  9993
2 49296  87.9183  51.3608 0001672  98.0695 262.0628 13.20770056139015
